<?xml version='1.0' encoding='UTF-8'?>
<oem xmlns:xsi="http://www.w3.org/2001/XMLSchema-instance" xsi:noNamespaceSchemaLocation="http://sanaregistry.org/r/ndmxml/ndmxml-1.0-master.xsd" id="CCSDS_OEM_VERS" version="2.0">
  <header>
    <CREATION_DATE>2019-11-27T21:42:37</CREATION_DATE>
    <ORIGINATOR>N/A</ORIGINATOR>
  </header>
  <body>
    <segment>
      <metadata>
        <OBJECT_NAME>ISS (ZARYA)</OBJECT_NAME>
        <OBJECT_ID>1998-067A</OBJECT_ID>
        <CENTER_NAME>MARS BARYCENTER</CENTER_NAME>
        <REF_FRAME>EME2000</REF_FRAME>
        <TIME_SYSTEM>UTC</TIME_SYSTEM>
        <START_TIME>2008-09-20T12:25:40.104192</START_TIME>
        <STOP_TIME>2008-09-20T14:25:40.104192</STOP_TIME>
        <INTERPOLATION>LAGRANGE</INTERPOLATION>
        <INTERPOLATION_DEGREE>8</INTERPOLATION_DEGREE>
      </metadata>
      <data>
        <stateVector>
          <EPOCH>2008-09-20T13:37:40.104192</EPOCH>
          <X units="km">344483040.998121</X>
          <Y units="km">120589365.346636</Y>
          <Z units="km">50194431.801322</Z>
          <X_DOT units="km/s">-9.036940</X_DOT>
          <Y_DOT units="km/s">43.721710</Y_DOT>
          <Z_DOT units="km/s">25.252997</Z_DOT>
        </stateVector>
        <stateVector>
          <EPOCH>2008-09-20T13:40:40.104192</EPOCH>
          <X units="km">344481434.230909</X>
          <Y units="km">120597369.672184</Y>
          <Z units="km">50198934.424863</Z>
          <X_DOT units="km/s">-8.853081</X_DOT>
          <Y_DOT units="km/s">45.206439</Y_DOT>
          <Z_DOT units="km/s">24.737301</Z_DOT>
        </stateVector>
        <stateVector>
          <EPOCH>2008-09-20T13:43:40.104192</EPOCH>
          <X units="km">344479840.393924</X>
          <Y units="km">120605634.622890</Y>
          <Z units="km">50203323.978153</Z>
          <X_DOT units="km/s">-8.893811</X_DOT>
          <Y_DOT units="km/s">46.607255</Y_DOT>
          <Z_DOT units="km/s">24.001120</Z_DOT>
        </stateVector>
        <stateVector>
          <EPOCH>2008-09-20T13:46:40.104192</EPOCH>
          <X units="km">344478219.059513</X>
          <Y units="km">120614139.672380</Y>
          <Z units="km">50207563.453633</Z>
          <X_DOT units="km/s">-9.157536</X_DOT>
          <Y_DOT units="km/s">47.864723</Y_DOT>
          <Z_DOT units="km/s">23.075686</Z_DOT>
        </stateVector>
        <stateVector>
          <EPOCH>2008-09-20T13:49:40.104192</EPOCH>
          <X units="km">344476530.946808</X>
          <Y units="km">120622854.111722</Y>
          <Z units="km">50211622.208765</Z>
          <X_DOT units="km/s">-9.633179</X_DOT>
          <Y_DOT units="km/s">48.925603</Y_DOT>
          <Z_DOT units="km/s">22.000250</Z_DOT>
        </stateVector>
        <stateVector>
          <EPOCH>2008-09-20T13:52:40.104192</EPOCH>
          <X units="km">344474739.583107</X>
          <Y units="km">120631738.381424</Y>
          <Z units="km">50215477.263216</Z>
          <X_DOT units="km/s">-10.300728</X_DOT>
          <Y_DOT units="km/s">49.745067</Y_DOT>
          <Z_DOT units="km/s">20.820354</Z_DOT>
        </stateVector>
        <stateVector>
          <EPOCH>2008-09-20T13:55:40.104192</EPOCH>
          <X units="km">344472812.838511</X>
          <Y units="km">120640745.746688</Y>
          <Z units="km">50219114.254178</Z>
          <X_DOT units="km/s">-11.132123</X_DOT>
          <Y_DOT units="km/s">50.288501</Y_DOT>
          <Z_DOT units="km/s">19.585880</Z_DOT>
        </stateVector>
        <stateVector>
          <EPOCH>2008-09-20T13:58:40.104192</EPOCH>
          <X units="km">344470724.270528</X>
          <Y units="km">120649824.270166</Y>
          <Z units="km">50222528.035388</Z>
          <X_DOT units="km/s">-12.092443</X_DOT>
          <Y_DOT units="km/s">50.532878</Y_DOT>
          <Z_DOT units="km/s">18.348995</Z_DOT>
        </stateVector>
        <stateVector>
          <EPOCH>2008-09-20T14:01:40.104192</EPOCH>
          <X units="km">344468454.236568</X>
          <Y units="km">120658918.979989</Y>
          <Z units="km">50225722.893528</Z>
          <X_DOT units="km/s">-13.141324</X_DOT>
          <Y_DOT units="km/s">50.467692</Y_DOT>
          <Z_DOT units="km/s">17.162016</Z_DOT>
        </stateVector>
        <stateVector>
          <EPOCH>2008-09-20T14:04:40.104192</EPOCH>
          <X units="km">344465990.727376</X>
          <Y units="km">120667974.185439</Y>
          <Z units="km">50228712.387807</Z>
          <X_DOT units="km/s">-14.234583</X_DOT>
          <Y_DOT units="km/s">50.095437</Y_DOT>
          <Z_DOT units="km/s">16.075277</Z_DOT>
        </stateVector>
        <stateVector>
          <EPOCH>2008-09-20T14:07:40.104192</EPOCH>
          <X units="km">344463329.896844</X>
          <Y units="km">120676935.816281</Y>
          <Z units="km">50231518.799176</Z>
          <X_DOT units="km/s">-15.326016</X_DOT>
          <Y_DOT units="km/s">49.431610</Y_DOT>
          <Z_DOT units="km/s">15.135017</Z_DOT>
        </stateVector>
        <stateVector>
          <EPOCH>2008-09-20T14:10:40.104192</EPOCH>
          <X units="km">344460476.252516</X>
          <Y units="km">120685753.728395</Y>
          <Z units="km">50234172.212997</Z>
          <X_DOT units="km/s">-16.369333</X_DOT>
          <Y_DOT units="km/s">48.504188</Y_DOT>
          <Z_DOT units="km/s">14.381383</Z_DOT>
        </stateVector>
        <stateVector>
          <EPOCH>2008-09-20T14:13:40.104192</EPOCH>
          <X units="km">344457442.494131</X>
          <Y units="km">120694383.854522</Y>
          <Z units="km">50236709.252828</Z>
          <X_DOT units="km/s">-17.320159</X_DOT>
          <Y_DOT units="km/s">47.352554</Y_DOT>
          <Z_DOT units="km/s">13.846611</Z_DOT>
        </stateVector>
        <stateVector>
          <EPOCH>2008-09-20T14:16:40.104192</EPOCH>
          <X units="km">344454248.984780</X>
          <Y units="km">120702790.129821</Y>
          <Z units="km">50239171.519583</Z>
          <X_DOT units="km/s">-18.138025</X_DOT>
          <Y_DOT units="km/s">46.025855</Y_DOT>
          <Z_DOT units="km/s">13.553528</Z_DOT>
        </stateVector>
        <stateVector>
          <EPOCH>2008-09-20T14:19:40.104192</EPOCH>
          <X units="km">344450922.880894</X>
          <Y units="km">120710946.055676</Y>
          <Z units="km">50241603.790792</Z>
          <X_DOT units="km/s">-18.788211</X_DOT>
          <Y_DOT units="km/s">44.580837</Y_DOT>
          <Z_DOT units="km/s">13.514462</Z_DOT>
        </stateVector>
        <stateVector>
          <EPOCH>2008-09-20T14:22:40.104192</EPOCH>
          <X units="km">344447496.951369</X>
          <Y units="km">120718835.835778</Y>
          <Z units="km">50244052.069335</Z>
          <X_DOT units="km/s">-19.243327</X_DOT>
          <Y_DOT units="km/s">43.079266</Y_DOT>
          <Z_DOT units="km/s">13.730682</Z_DOT>
        </stateVector>
        <stateVector>
          <EPOCH>2008-09-20T14:25:40.104192</EPOCH>
          <X units="km">344444008.140701</X>
          <Y units="km">120726455.037859</Y>
          <Z units="km">50246561.589873</Z>
          <X_DOT units="km/s">-19.484516</X_DOT>
          <Y_DOT units="km/s">41.585101</Y_DOT>
          <Z_DOT units="km/s">14.192398</Z_DOT>
        </stateVector>
      </data>
    </segment>
  </body>
</oem>
